start=new Date('2023-01-05T00:00:00.000Z').valueOf();
sats=[{"BSTAR":"0.00031626000000","EPHEMERIS_TYPE":"0","MEAN_ANOMALY":"312.0227","PERIOD":"95.591","MEAN_MOTION_DOT":"0.00004434","CLASSIFICATION_TYPE":"U","DECAY_DATE":null,"NORAD_CAT_ID":"48433","ELEMENT_SET_NO":"999","TLE_LINE1":"1 48433U 21040F   23004.59013817  .00004434  00000-0  31626-3 0  9998","APOAPSIS":"548.449","RCS_SIZE":"LARGE","ECCENTRICITY":"0.00018410","OBJECT_NAME":"STARLINK-2699","OBJECT_TYPE":"PAYLOAD","SEMIMAJOR_AXIS":"6925.309","ARG_OF_PERICENTER":"48.0919","INCLINATION":"53.0542","LAUNCH_DATE":"2021-05-09","MEAN_ELEMENT_THEORY":"SGP4","EPOCH":"2023-01-04T14:09:47.937888","TIME_SYSTEM":"UTC","MEAN_MOTION":"15.06412816","FILE":"3731823","MEAN_MOTION_DDOT":"0.0000000000000","OBJECT_ID":"2021-040F","PERIAPSIS":"545.899","CENTER_NAME":"EARTH","GP_ID":"222158819","TLE_LINE2":"2 48433  53.0542 319.7991 0001841  48.0919 312.0227 15.06412816 92188","SITE":"AFETR","COUNTRY_CODE":"US","REV_AT_EPOCH":"9218","RA_OF_ASC_NODE":"319.7991","REF_FRAME":"TEME"},{"LAUNCH_DATE":"2021-05-09","INCLINATION":"53.0544","EPOCH":"2023-01-04T14:54:17.482752","MEAN_ELEMENT_THEORY":"SGP4","TIME_SYSTEM":"UTC","OBJECT_ID":"2021-040G","PERIAPSIS":"546.036","MEAN_MOTION":"15.06423691","MEAN_MOTION_DDOT":"0.0000000000000","FILE":"3731683","SITE":"AFETR","TLE_LINE2":"2 48434  53.0544 324.8932 0001595  78.0682 282.0486 15.06423691 92578","GP_ID":"222134095","CENTER_NAME":"EARTH","REF_FRAME":"TEME","REV_AT_EPOCH":"9257","RA_OF_ASC_NODE":"324.8932","COUNTRY_CODE":"US","PERIOD":"95.591","MEAN_MOTION_DOT":"0.00014097","BSTAR":"0.00096277000000","EPHEMERIS_TYPE":"0","MEAN_ANOMALY":"282.0486","ELEMENT_SET_NO":"999","NORAD_CAT_ID":"48434","DECAY_DATE":null,"CLASSIFICATION_TYPE":"U","RCS_SIZE":"LARGE","APOAPSIS":"548.246","TLE_LINE1":"1 48434U 21040G   23004.62103568  .00014097  00000-0  96277-3 0  9995","OBJECT_TYPE":"PAYLOAD","SEMIMAJOR_AXIS":"6925.276","ARG_OF_PERICENTER":"78.0682","OBJECT_NAME":"STARLINK-2692","ECCENTRICITY":"0.00015950"},{"NORAD_CAT_ID":"48435","ELEMENT_SET_NO":"999","CLASSIFICATION_TYPE":"U","DECAY_DATE":null,"PERIOD":"95.593","MEAN_MOTION_DOT":"-0.00002458","BSTAR":"-0.00014616000000","EPHEMERIS_TYPE":"0","MEAN_ANOMALY":"323.7168","OBJECT_TYPE":"PAYLOAD","ARG_OF_PERICENTER":"36.3978","SEMIMAJOR_AXIS":"6925.386","ECCENTRICITY":"0.00023120","OBJECT_NAME":"STARLINK-2633","RCS_SIZE":"LARGE","TLE_LINE1":"1 48435U 21040H   23004.62743779 -.00002458  00000-0 -14616-3 0  9997","APOAPSIS":"548.853","OBJECT_ID":"2021-040H","PERIAPSIS":"545.650","MEAN_MOTION":"15.06387650","MEAN_MOTION_DDOT":"0.0000000000000","FILE":"3732049","LAUNCH_DATE":"2021-05-09","INCLINATION":"53.0557","MEAN_ELEMENT_THEORY":"SGP4","EPOCH":"2023-01-04T15:03:30.625056","TIME_SYSTEM":"UTC","RA_OF_ASC_NODE":"334.3621","REV_AT_EPOCH":"9326","REF_FRAME":"TEME","COUNTRY_CODE":"US","TLE_LINE2":"2 48435  53.0557 334.3621 0002312  36.3978 323.7168 15.06387650 93268","SITE":"AFETR","CENTER_NAME":"EARTH","GP_ID":"222194032"},{"PERIOD":"95.592","MEAN_MOTION_DOT":"0.00004087","BSTAR":"0.00029310000000","EPHEMERIS_TYPE":"0","MEAN_ANOMALY":"317.1467","ELEMENT_SET_NO":"999","NORAD_CAT_ID":"48436","DECAY_DATE":null,"CLASSIFICATION_TYPE":"U","RCS_SIZE":"LARGE","APOAPSIS":"548.816","TLE_LINE1":"1 48436U 21040J   23004.21875712  .00004087  00000-0  29310-3 0  9991","OBJECT_TYPE":"PAYLOAD","SEMIMAJOR_AXIS":"6925.336","ARG_OF_PERICENTER":"42.9703","ECCENTRICITY":"0.00023320","OBJECT_NAME":"STARLINK-2639","INCLINATION":"53.0560","LAUNCH_DATE":"2021-05-09","EPOCH":"2023-01-04T05:15:00.615168","MEAN_ELEMENT_THEORY":"SGP4","TIME_SYSTEM":"UTC","OBJECT_ID":"2021-040J","PERIAPSIS":"545.586","MEAN_MOTION":"15.06404000","FILE":"3731823","MEAN_MOTION_DDOT":"0.0000000000000","SITE":"AFETR","TLE_LINE2":"2 48436  53.0560 351.1842 0002332  42.9703 317.1467 15.06404000 91712","GP_ID":"222159076","CENTER_NAME":"EARTH","REF_FRAME":"TEME","RA_OF_ASC_NODE":"351.1842","REV_AT_EPOCH":"9171","COUNTRY_CODE":"US"},{"COUNTRY_CODE":"US","REV_AT_EPOCH":"9294","RA_OF_ASC_NODE":"358.5796","REF_FRAME":"TEME","CENTER_NAME":"EARTH","GP_ID":"222193860","TLE_LINE2":"2 48437  53.0552 358.5796 0002921  34.8300 325.2879 15.06433768 92946","SITE":"AFETR","MEAN_MOTION_DDOT":"0.0000000000000","FILE":"3732049","MEAN_MOTION":"15.06433768","PERIAPSIS":"545.087","OBJECT_ID":"2021-040K","TIME_SYSTEM":"UTC","EPOCH":"2023-01-04T19:12:16.848000","LAUNCH_DATE":"2021-05-09","INCLINATION":"53.0552","MEAN_ELEMENT_THEORY":"SGP4","OBJECT_NAME":"STARLINK-2642","ECCENTRICITY":"0.00029210","SEMIMAJOR_AXIS":"6925.245","ARG_OF_PERICENTER":"34.8300","OBJECT_TYPE":"PAYLOAD","TLE_LINE1":"1 48437U 21040K   23004.80019500 -.00003413  00000-0 -21006-3 0  9990","APOAPSIS":"549.133","RCS_SIZE":"LARGE","CLASSIFICATION_TYPE":"U","DECAY_DATE":null,"NORAD_CAT_ID":"48437","ELEMENT_SET_NO":"999","MEAN_ANOMALY":"325.2879","BSTAR":"-0.00021006000000","EPHEMERIS_TYPE":"0","MEAN_MOTION_DOT":"-0.00003413","PERIOD":"95.590"},{"EPOCH":"2023-01-04T11:31:51.120192","LAUNCH_DATE":"2021-05-09","INCLINATION":"53.0542","MEAN_ELEMENT_THEORY":"SGP4","TIME_SYSTEM":"UTC","OBJECT_ID":"2021-040L","PERIAPSIS":"545.957","MEAN_MOTION":"15.06410126","MEAN_MOTION_DDOT":"0.0000000000000","FILE":"3731823","TLE_LINE2":"2 48438  53.0542 349.9982 0001769  52.3956 307.7193 15.06410126 91753","SITE":"AFETR","CENTER_NAME":"EARTH","GP_ID":"222158075","RA_OF_ASC_NODE":"349.9982","REV_AT_EPOCH":"9175","REF_FRAME":"TEME","COUNTRY_CODE":"US","PERIOD":"95.591","MEAN_MOTION_DOT":"0.00009453","EPHEMERIS_TYPE":"0","BSTAR":"0.00065246000000","MEAN_ANOMALY":"307.7193","NORAD_CAT_ID":"48438","ELEMENT_SET_NO":"999","CLASSIFICATION_TYPE":"U","DECAY_DATE":null,"RCS_SIZE":"LARGE","TLE_LINE1":"1 48438U 21040L   23004.48045278  .00009453  00000-0  65246-3 0  9998","APOAPSIS":"548.408","OBJECT_TYPE":"PAYLOAD","ARG_OF_PERICENTER":"52.3956","SEMIMAJOR_AXIS":"6925.318","ECCENTRICITY":"0.00017690","OBJECT_NAME":"STARLINK-2640"},{"REV_AT_EPOCH":"9173","RA_OF_ASC_NODE":"350.6041","REF_FRAME":"TEME","COUNTRY_CODE":"US","TLE_LINE2":"2 48439  53.0536 350.6041 0002265  37.1540 322.9606 15.06406524 91737","SITE":"AFETR","CENTER_NAME":"EARTH","GP_ID":"222158325","OBJECT_ID":"2021-040M","PERIAPSIS":"545.625","MEAN_MOTION":"15.06406524","MEAN_MOTION_DDOT":"0.0000000000000","FILE":"3731823","INCLINATION":"53.0536","LAUNCH_DATE":"2021-05-09","EPOCH":"2023-01-04T08:15:27.198720","MEAN_ELEMENT_THEORY":"SGP4","TIME_SYSTEM":"UTC","OBJECT_TYPE":"PAYLOAD","SEMIMAJOR_AXIS":"6925.329","ARG_OF_PERICENTER":"37.1540","OBJECT_NAME":"STARLINK-2583","ECCENTRICITY":"0.00022650","RCS_SIZE":"LARGE","TLE_LINE1":"1 48439U 21040M   23004.34406480  .00002786  00000-0  20586-3 0  9990","APOAPSIS":"548.762","NORAD_CAT_ID":"48439","ELEMENT_SET_NO":"999","CLASSIFICATION_TYPE":"U","DECAY_DATE":null,"PERIOD":"95.592","MEAN_MOTION_DOT":"0.00002786","BSTAR":"0.00020586000000","EPHEMERIS_TYPE":"0","MEAN_ANOMALY":"322.9606"},{"GP_ID":"222158576","CENTER_NAME":"EARTH","SITE":"AFETR","TLE_LINE2":"2 48440  53.0550 350.6208 0002620  35.9360 324.1805 15.06402021 91734","COUNTRY_CODE":"US","REF_FRAME":"TEME","REV_AT_EPOCH":"9173","RA_OF_ASC_NODE":"350.6208","LAUNCH_DATE":"2021-05-09","INCLINATION":"53.0550","MEAN_ELEMENT_THEORY":"SGP4","EPOCH":"2023-01-04T08:10:09.290784","TIME_SYSTEM":"UTC","MEAN_MOTION":"15.06402021","FILE":"3731823","MEAN_MOTION_DDOT":"0.0000000000000","OBJECT_ID":"2021-040N","PERIAPSIS":"545.393","APOAPSIS":"549.022","TLE_LINE1":"1 48440U 21040N   23004.34038531  .00001352  00000-0  10964-3 0  9997","RCS_SIZE":"LARGE","ECCENTRICITY":"0.00026200","OBJECT_NAME":"STARLINK-2682","OBJECT_TYPE":"PAYLOAD","ARG_OF_PERICENTER":"35.9360","SEMIMAJOR_AXIS":"6925.342","BSTAR":"0.00010964000000","EPHEMERIS_TYPE":"0","MEAN_ANOMALY":"324.1805","PERIOD":"95.592","MEAN_MOTION_DOT":"0.00001352","DECAY_DATE":null,"CLASSIFICATION_TYPE":"U","ELEMENT_SET_NO":"999","NORAD_CAT_ID":"48440"},{"MEAN_MOTION":"15.06401458","MEAN_MOTION_DDOT":"0.0000000000000","FILE":"3731823","OBJECT_ID":"2021-040P","PERIAPSIS":"545.599","MEAN_ELEMENT_THEORY":"SGP4","LAUNCH_DATE":"2021-05-09","INCLINATION":"53.0560","EPOCH":"2023-01-04T06:29:18.663360","TIME_SYSTEM":"UTC","COUNTRY_CODE":"US","REF_FRAME":"TEME","RA_OF_ASC_NODE":"350.9318","REV_AT_EPOCH":"9172","GP_ID":"222158820","CENTER_NAME":"EARTH","SITE":"AFETR","TLE_LINE2":"2 48441  53.0560 350.9318 0002325  43.7998 316.3175 15.06401458 91722","DECAY_DATE":null,"CLASSIFICATION_TYPE":"U","ELEMENT_SET_NO":"999","NORAD_CAT_ID":"48441","BSTAR":"0.00016613000000","EPHEMERIS_TYPE":"0","MEAN_ANOMALY":"316.3175","PERIOD":"95.592","MEAN_MOTION_DOT":"0.00002194","OBJECT_NAME":"STARLINK-2702","ECCENTRICITY":"0.00023250","OBJECT_TYPE":"PAYLOAD","ARG_OF_PERICENTER":"43.7998","SEMIMAJOR_AXIS":"6925.344","APOAPSIS":"548.819","TLE_LINE1":"1 48441U 21040P   23004.27035490  .00002194  00000-0  16613-3 0  9993","RCS_SIZE":"LARGE"},{"RCS_SIZE":"LARGE","TLE_LINE1":"1 48442U 21040Q   23004.33302078  .00000449  00000-0  49071-4 0  9996","APOAPSIS":"548.916","OBJECT_TYPE":"PAYLOAD","SEMIMAJOR_AXIS":"6925.368","ARG_OF_PERICENTER":"39.3792","OBJECT_NAME":"STARLINK-2644","ECCENTRICITY":"0.00024290","PERIOD":"95.593","MEAN_MOTION_DOT":"0.00000449","BSTAR":"0.00004907100000","EPHEMERIS_TYPE":"0","MEAN_ANOMALY":"320.7373","NORAD_CAT_ID":"48442","ELEMENT_SET_NO":"999","CLASSIFICATION_TYPE":"U","DECAY_DATE":null,"TLE_LINE2":"2 48442  53.0562 350.6757 0002429  39.3792 320.7373 15.06393541 91730","SITE":"AFETR","CENTER_NAME":"EARTH","GP_ID":"222157575","RA_OF_ASC_NODE":"350.6757","REV_AT_EPOCH":"9173","REF_FRAME":"TEME","COUNTRY_CODE":"US","LAUNCH_DATE":"2021-05-09","INCLINATION":"53.0562","EPOCH":"2023-01-04T07:59:32.995392","MEAN_ELEMENT_THEORY":"SGP4","TIME_SYSTEM":"UTC","OBJECT_ID":"2021-040Q","PERIAPSIS":"545.551","MEAN_MOTION":"15.06393541","FILE":"3731823","MEAN_MOTION_DDOT":"0.0000000000000"}];
